STARLINK-2518
1 18333C 21036BK  21326.18415213  .00003327  00000-0  22292-3 0  3261
2 18333  53.0535 302.9214 0001827  54.4145  59.6280 15.06397951    13
